#dP2024 12 28  6  0  0.00000000      96 __u+U IGS20 EXT  IAC
## 2346 540000.00000000   900.00000000 60672 0.2500000000000
+   52   G02G03G04G05G06G07G08G09G10G11G12G13G14G15G16G17G18
+        G19G20G21G22G23G24G25G26G27G28G29G30G31G32R01R02R03
+        R04R05R07R08R09R11R12R14R15R16R17R18R19R20R21R22R24
+        R26  0  0  0  0  0  0  0  0  0  0  0  0  0  0  0  0
+          0  0  0  0  0  0  0  0  0  0  0  0  0  0  0  0  0
++         8  8  8  8  7  7  8  8  7  7  8  8  8  8  7  8  8
++         7  8  7  8  8  7  8  7  8  8  8  7  7  7 10  8  8
++         8  8  7  8  8  8  8  8  9  9  7  8  9 10  8  8  9
++        10  0  0  0  0  0  0  0  0  0  0  0  0  0  0  0  0
++         0  0  0  0  0  0  0  0  0  0  0  0  0  0  0  0  0
%c M  cc GPS ccc cccc cccc cccc cccc ccccc ccccc ccccc ccccc
%c cc cc ccc ccc cccc cccc cccc cccc ccccc ccccc ccccc ccccc
%f  0.0000000  0.000000000  0.00000000000  0.000000000000000
%f  0.0000000  0.000000000  0.00000000000  0.000000000000000
%i    0    0    0    0      0      0      0      0         0
%i    0    0    0    0      0      0      0      0         0
/* IAC                                ULTRA-RAPID PREDICTION
/* S/V CLOCKS ARE ALIGNED TO GNSS TIME                      
/* G:C1WC2W R:C1PC2P E:C1XC5X C:C2IC6I J:C1CC2S             
/* PCV:IGS20_2317 OL/AL:FES2004  NONE     YN ORB:CoN CLK:CoN
*  2024 12 28 13  0  0.00000000
PG02 -19976.492192  -8972.157708  15763.262864   -281.406890
PG03 -16941.360143   3244.569851  19997.672376    634.531136
PG04 -26637.172449   -605.117158    254.062555    503.091283
PG05  10173.235497  12255.714892 -21418.854016   -197.353620
PG06   3214.953419  22821.337938  13167.501148    -77.704096
PG07 -13568.186545   6916.280165 -21236.630438    -14.348624
PG08 -23304.176495  -6819.372820 -11413.218043    448.762949
PG09 -24403.673754   6820.751227  -8175.738607    505.880643
PG10   9501.163340 -24101.127100   5202.570989   -252.955472
PG11  11946.479763  23731.224878   1170.641404   -752.651262
PG12  16352.450395   1198.951924  20598.725775   -561.103058
PG13  16217.564017  13404.275342 -16587.722946    691.574753
PG14 -12475.972366  23270.755054   1219.594761    569.090582
PG15  23900.398877   4240.746538 -11469.107591    244.947197
PG16  -5293.048901 -17054.570936 -19870.606720    -91.958875
PG17 -12172.938611  13321.723617  19965.941208    499.702751
PG18  11675.713290  -9469.349156 -21850.929261   -659.519186
PG19   -361.604826  15070.638424  21734.948327    579.343557
PG20   3238.301257  22123.519907 -14352.224046    367.525147
PG21 -20180.333267 -15075.057786  10384.395556     98.855336
PG22  -7990.444213  23783.959190   9560.955586    -89.128264
PG23  16435.400635 -18633.507736  -9009.124347    392.606681
PG24  20295.565578  11175.284775  12865.334734   -469.549914
PG25  18120.344412 -12736.479657  14103.204107    497.547615
PG26   1146.659903 -23785.049558 -11533.887317    -25.916604
PG27 -13990.811661 -12913.049887 -19000.984898    -33.738352
PG28  -2239.191086 -22129.847121  14500.510207   -520.576393
PG29  24789.372940  -4553.116327  -8619.473990   -552.102514
PG30  -4881.738527  18204.928305 -18459.524715   -251.595718
PG31  -9191.601648 -24011.090652   5599.077724   -219.085032
PG32   6835.929408 -14864.944471  21111.204086   -551.589471
PR01  -6430.191744  -9043.903478  22969.028703    109.305245
PR02 -20571.972246    293.162449  15174.862874    -38.866621
PR03 -23458.793455   9978.760978  -1560.061279    114.028018
PR04 -13618.219409  13446.877810 -16845.771328    270.302424
PR05   3502.705351  10058.434698 -23166.368331    142.888372
PR07  23287.179775 -10133.855522   2075.435859     97.787773
PR08  13110.858051 -13678.646789  17116.889410     -6.191787
PR09  10315.051202   7028.691099  22248.023814    228.800067
PR11   6940.959148 -23328.219380   7669.152285      2.764432
PR12  -2461.304926 -22469.522556 -11790.556771     48.944860
PR14 -11263.361940  11529.940336 -19759.070065     27.501080
PR15  -6353.401433  23990.189177  -5874.070541     72.732632
PR16   2386.886519  22515.805337  11716.231593     32.016265
PR17 -14804.765128    324.020803  20772.591792    152.464683
PR18  -1474.433130  12023.712656  22462.136053    179.084019
PR19  10808.198610  18130.502938  14331.644552   -303.538763
PR20  20236.687419  14031.400039  -6557.832791   -123.905086
PR21  15547.281001    876.595678 -20204.322029   -163.364288
PR22    770.179627 -13072.045993 -21861.420538    -53.136779
PR24 -21028.899032 -12612.673236   7023.816837    -85.882037
PR26  14743.175610 -13720.383558  15685.825717   -132.353165
*  2024 12 28 13 15  0.00000000
PG02 -20842.765168 -10319.246265  13641.730132   -281.398800
PG03 -15910.830265   1099.560718  21050.855672    634.538403
PG04 -26451.693743   -834.061621   3104.357183    503.096701
PG05   9141.119917  14380.897255 -20531.702930   -197.354666
PG06   2238.395570  21517.997702  15398.681816    -77.729146
PG07 -14932.570135   4787.075352 -20953.351040    -14.347912
PG08 -21922.798551  -7145.750417 -13702.532891    448.770572
PG09 -25187.901520   6644.680166  -5468.110208    505.894702
PG10   9865.347117 -24371.427254   2317.136254   -252.969704
PG11  11596.392241  23598.384576   4012.560113   -752.651003
PG12  15144.139922   3338.953544  21270.665279   -561.105138
PG13  14269.008919  13342.612866 -18338.562465    691.575974
PG14 -12745.548793  23094.381428  -1616.863470    569.097259
PG15  22611.799112   4760.392489 -13743.444664    244.951257
PG16  -4042.625500 -18798.113846 -18479.650666    -91.950260
PG17 -14292.079631  13208.197003  18576.870023    499.687740
PG18  13013.836626  -7347.420116 -21931.095614   -659.518414
PG19  -2867.707146  14915.523029  21617.743020    579.347754
PG20   2604.108296  23522.922085 -12104.518444    367.524864
PG21 -20664.265462 -15923.857292   7843.499612     98.857438
PG22  -8641.478512  24424.655005   6934.532985    -89.130312
PG23  16092.590311 -17480.411800 -11582.339181    392.613532
PG24  20966.283202  12428.616426  10549.577308   -469.546773
PG25  17541.430640 -11017.727232  16114.360415    497.547170
PG26   1886.840979 -24750.613160  -9072.524243    -25.929788
PG27 -11825.584630 -13137.379827 -20257.414871    -33.737975
PG28  -1079.397329 -20772.652310  16501.133848   -520.585610
PG29  25607.362517  -4323.862700  -5918.264926   -552.099534
PG30  -6233.337021  16426.813687 -19694.342899   -251.588282
PG31  -8504.789368 -23454.955557   8308.302166   -219.084347
PG32   9154.785299 -14921.686452  20142.701573   -551.583694
PR01  -3855.682625 -10240.501611  23043.660924    109.306460
PR02 -18672.957544   -358.336932  17457.663772    -38.866437
PR03 -23390.546627  10137.403732   1657.416737    114.028638
PR04 -15355.048678  14319.108405 -14472.055334    270.303762
PR05    876.903972  11161.587334 -22910.465971    142.888934
PR07  23269.914992 -10305.862222  -1149.873293     97.788443
PR08  14863.870902 -14562.626770  14784.812437     -6.191747
PR09  10121.826052   9705.160737  21302.797954    228.802010
PR11   6688.647796 -22221.767045  10613.953448      2.762743
PR12  -2434.566477 -23755.843184  -8931.033960     48.945294
PR14 -10955.815377   9021.401755 -21186.211199     27.501183
PR15  -6132.022275  23095.832992  -8905.953304     72.732189
PR16   2383.133975  23792.127990   8838.463450     32.016634
PR17 -16826.823021  -1084.809716  19138.835485    152.467702
PR18  -3671.804285  10274.795579  23074.825693    179.085758
PR19   9432.016236  16783.451291  16742.194217   -303.539985
PR20  20845.141977  14264.957627  -3386.352963   -123.905846
PR21  17506.062442   2244.348224 -18420.379942   -163.367175
PR22   2888.322061 -11311.861198 -22649.368711    -53.138287
PR24 -21652.283918 -12900.505445   3902.175906    -85.883380
PR26  16318.543948 -14553.793162  13171.325311   -132.352827
EOF
